start=new Date('2022-02-11T00:00:00.000Z').valueOf();
sats=[{"APOAPSIS":"446.801","MEAN_MOTION":"15.40476025","CENTER_NAME":"EARTH","PERIAPSIS":"442.609","RCS_SIZE":"LARGE","MEAN_MOTION_DDOT":"0.0000000000000","ECCENTRICITY":"0.00030720","SITE":"AFETR","REF_FRAME":"TEME","TLE_LINE2":"2 49756  53.2189 347.6233 0003072  14.3558 113.3931 15.40476025  3634","OBJECT_TYPE":"PAYLOAD","MEAN_ANOMALY":"113.3931","EPOCH":"2022-02-10T22:00:00.999936","BSTAR":"0.00113100000000","LAUNCH_DATE":"2021-12-02","OBJECT_ID":"2021-115AJ","SEMIMAJOR_AXIS":"6822.840","ELEMENT_SET_NO":"999","CLASSIFICATION_TYPE":"U","MEAN_ELEMENT_THEORY":"SGP4","INCLINATION":"53.2189","FILE":"3297147","TIME_SYSTEM":"UTC","DECAY_DATE":null,"OBJECT_NAME":"STARLINK-3207","EPHEMERIS_TYPE":"0","GP_ID":"195717117","ARG_OF_PERICENTER":"14.3558","RA_OF_ASC_NODE":"347.6233","TLE_LINE1":"1 49756U 21115AJ  22041.91667824  .00046416  00000-0  11310-2 0  9992","MEAN_MOTION_DOT":"0.00046416","PERIOD":"93.478","NORAD_CAT_ID":"49756","REV_AT_EPOCH":"363","COUNTRY_CODE":"US"},{"EPOCH":"2022-02-10T22:00:00.999936","BSTAR":"0.00010039000000","LAUNCH_DATE":"2021-12-02","SITE":"AFETR","REF_FRAME":"TEME","TLE_LINE2":"2 49757  53.2194 347.6201 0002873  17.7228 113.1994 15.40502425 12041","OBJECT_TYPE":"PAYLOAD","MEAN_ANOMALY":"113.1994","PERIAPSIS":"442.667","RCS_SIZE":"LARGE","MEAN_MOTION_DDOT":"0.0000000000000","ECCENTRICITY":"0.00028730","APOAPSIS":"446.588","MEAN_MOTION":"15.40502425","CENTER_NAME":"EARTH","REV_AT_EPOCH":"1204","COUNTRY_CODE":"US","RA_OF_ASC_NODE":"347.6201","MEAN_MOTION_DOT":"0.00003732","TLE_LINE1":"1 49757U 21115AK  22041.91667824  .00003732  00000-0  10039-3 0  9995","PERIOD":"93.476","NORAD_CAT_ID":"49757","DECAY_DATE":null,"OBJECT_NAME":"STARLINK-3197","EPHEMERIS_TYPE":"0","GP_ID":"195689464","ARG_OF_PERICENTER":"17.7228","OBJECT_ID":"2021-115AK","ELEMENT_SET_NO":"999","SEMIMAJOR_AXIS":"6822.762","CLASSIFICATION_TYPE":"U","MEAN_ELEMENT_THEORY":"SGP4","INCLINATION":"53.2194","FILE":"3296972","TIME_SYSTEM":"UTC"},{"EPHEMERIS_TYPE":"0","OBJECT_NAME":"STARLINK-3194","DECAY_DATE":null,"ARG_OF_PERICENTER":"19.4510","GP_ID":"195716116","CLASSIFICATION_TYPE":"U","MEAN_ELEMENT_THEORY":"SGP4","SEMIMAJOR_AXIS":"6822.887","ELEMENT_SET_NO":"999","OBJECT_ID":"2021-115AL","TIME_SYSTEM":"UTC","FILE":"3297147","INCLINATION":"53.2204","COUNTRY_CODE":"US","REV_AT_EPOCH":"1092","RA_OF_ASC_NODE":"348.0397","NORAD_CAT_ID":"49758","PERIOD":"93.479","TLE_LINE1":"1 49758U 21115AL  22041.82917686 -.00000286  00000-0  28853-5 0  9997","MEAN_MOTION_DOT":"-0.00000286","MEAN_MOTION_DDOT":"0.0000000000000","RCS_SIZE":"LARGE","PERIAPSIS":"442.867","ECCENTRICITY":"0.00027630","APOAPSIS":"446.638","CENTER_NAME":"EARTH","MEAN_MOTION":"15.40460117","EPOCH":"2022-02-10T19:54:00.880704","LAUNCH_DATE":"2021-12-02","BSTAR":"0.00000288530000","MEAN_ANOMALY":"340.6601","OBJECT_TYPE":"PAYLOAD","TLE_LINE2":"2 49758  53.2204 348.0397 0002763  19.4510 340.6601 15.40460117 10924","SITE":"AFETR","REF_FRAME":"TEME"},{"APOAPSIS":"446.728","MEAN_MOTION":"15.40480593","CENTER_NAME":"EARTH","PERIAPSIS":"442.656","RCS_SIZE":"LARGE","MEAN_MOTION_DDOT":"0.0000000000000","ECCENTRICITY":"0.00029840","TLE_LINE2":"2 49759  53.2173 348.0409 0002984  30.8785 329.2396 15.40480593 10924","SITE":"AFETR","REF_FRAME":"TEME","MEAN_ANOMALY":"329.2396","OBJECT_TYPE":"PAYLOAD","EPOCH":"2022-02-10T19:53:11.140224","BSTAR":"0.00002196400000","LAUNCH_DATE":"2021-12-02","OBJECT_ID":"2021-115AM","MEAN_ELEMENT_THEORY":"SGP4","CLASSIFICATION_TYPE":"U","ELEMENT_SET_NO":"999","SEMIMAJOR_AXIS":"6822.827","INCLINATION":"53.2173","TIME_SYSTEM":"UTC","FILE":"3297147","DECAY_DATE":null,"OBJECT_NAME":"STARLINK-3204","EPHEMERIS_TYPE":"0","GP_ID":"195716868","ARG_OF_PERICENTER":"30.8785","RA_OF_ASC_NODE":"348.0409","TLE_LINE1":"1 49759U 21115AM  22041.82860116  .00000499  00000-0  21964-4 0  9993","MEAN_MOTION_DOT":"0.00000499","NORAD_CAT_ID":"49759","PERIOD":"93.477","REV_AT_EPOCH":"1092","COUNTRY_CODE":"US"},{"SITE":"AFETR","REF_FRAME":"TEME","TLE_LINE2":"2 49760  53.2187 348.0409 0002386  29.1753 330.9386 15.40460423 10921","OBJECT_TYPE":"PAYLOAD","MEAN_ANOMALY":"330.9386","EPOCH":"2022-02-10T19:54:33.500160","BSTAR":"-0.00003558400000","LAUNCH_DATE":"2021-12-02","APOAPSIS":"446.379","MEAN_MOTION":"15.40460423","CENTER_NAME":"EARTH","PERIAPSIS":"443.124","RCS_SIZE":"MEDIUM","MEAN_MOTION_DDOT":"0.0000000000000","ECCENTRICITY":"0.00023860","RA_OF_ASC_NODE":"348.0409","MEAN_MOTION_DOT":"-0.00001867","TLE_LINE1":"1 49760U 21115AN  22041.82955440 -.00001867  00000-0 -35584-4 0  9995","PERIOD":"93.479","NORAD_CAT_ID":"49760","REV_AT_EPOCH":"1092","COUNTRY_CODE":"US","OBJECT_ID":"2021-115AN","SEMIMAJOR_AXIS":"6822.886","ELEMENT_SET_NO":"999","MEAN_ELEMENT_THEORY":"SGP4","CLASSIFICATION_TYPE":"U","INCLINATION":"53.2187","FILE":"3297147","TIME_SYSTEM":"UTC","DECAY_DATE":null,"OBJECT_NAME":"STARLINK-3199","EPHEMERIS_TYPE":"0","GP_ID":"195716618","ARG_OF_PERICENTER":"29.1753"},{"CLASSIFICATION_TYPE":"U","MEAN_ELEMENT_THEORY":"SGP4","ELEMENT_SET_NO":"999","SEMIMAJOR_AXIS":"6822.834","OBJECT_ID":"2021-115AP","TIME_SYSTEM":"UTC","FILE":"3297086","INCLINATION":"53.2191","EPHEMERIS_TYPE":"0","DECAY_DATE":null,"OBJECT_NAME":"STARLINK-3203","ARG_OF_PERICENTER":"24.8247","GP_ID":"195691922","RA_OF_ASC_NODE":"347.6272","NORAD_CAT_ID":"49761","PERIOD":"93.477","TLE_LINE1":"1 49761U 21115AP  22041.91667824  .00046147  00000-0  11245-2 0  9996","MEAN_MOTION_DOT":"0.00046147","COUNTRY_CODE":"US","REV_AT_EPOCH":"1204","APOAPSIS":"446.433","CENTER_NAME":"EARTH","MEAN_MOTION":"15.40478229","MEAN_MOTION_DDOT":"0.0000000000000","RCS_SIZE":"LARGE","PERIAPSIS":"442.965","ECCENTRICITY":"0.00025410","MEAN_ANOMALY":"101.8865","OBJECT_TYPE":"PAYLOAD","TLE_LINE2":"2 49761  53.2191 347.6272 0002541  24.8247 101.8865 15.40478229 12048","REF_FRAME":"TEME","SITE":"AFETR","EPOCH":"2022-02-10T22:00:00.999936","LAUNCH_DATE":"2021-12-02","BSTAR":"0.00112450000000"},{"EPOCH":"2022-02-10T22:00:00.999936","LAUNCH_DATE":"2021-12-02","BSTAR":"0.00108970000000","OBJECT_TYPE":"PAYLOAD","MEAN_ANOMALY":"91.5624","REF_FRAME":"TEME","SITE":"AFETR","TLE_LINE2":"2 49762  53.2191 347.6360 0002284  29.9131  91.5624 15.40469843 12049","MEAN_MOTION_DDOT":"0.0000000000000","RCS_SIZE":"LARGE","PERIAPSIS":"443.165","ECCENTRICITY":"0.00022840","APOAPSIS":"446.282","CENTER_NAME":"EARTH","MEAN_MOTION":"15.40469843","COUNTRY_CODE":"US","REV_AT_EPOCH":"1204","RA_OF_ASC_NODE":"347.6360","PERIOD":"93.478","NORAD_CAT_ID":"49762","MEAN_MOTION_DOT":"0.00044685","TLE_LINE1":"1 49762U 21115AQ  22041.91667824  .00044685  00000-0  10897-2 0  9994","EPHEMERIS_TYPE":"0","OBJECT_NAME":"STARLINK-3195","DECAY_DATE":null,"ARG_OF_PERICENTER":"29.9131","GP_ID":"195688978","ELEMENT_SET_NO":"999","SEMIMAJOR_AXIS":"6822.859","MEAN_ELEMENT_THEORY":"SGP4","CLASSIFICATION_TYPE":"U","OBJECT_ID":"2021-115AQ","FILE":"3296984","TIME_SYSTEM":"UTC","INCLINATION":"53.2191"},{"REV_AT_EPOCH":"363","COUNTRY_CODE":"US","RA_OF_ASC_NODE":"347.6304","MEAN_MOTION_DOT":"0.00015203","TLE_LINE1":"1 49763U 21115AR  22041.91667824  .00015203  00000-0  37822-3 0  9997","NORAD_CAT_ID":"49763","PERIOD":"93.476","OBJECT_NAME":"STARLINK-3198","DECAY_DATE":null,"EPHEMERIS_TYPE":"0","GP_ID":"195716369","ARG_OF_PERICENTER":"28.4555","OBJECT_ID":"2021-115AR","CLASSIFICATION_TYPE":"U","MEAN_ELEMENT_THEORY":"SGP4","ELEMENT_SET_NO":"999","SEMIMAJOR_AXIS":"6822.757","INCLINATION":"53.2191","TIME_SYSTEM":"UTC","FILE":"3297147","EPOCH":"2022-02-10T22:00:00.999936","BSTAR":"0.00037822000000","LAUNCH_DATE":"2021-12-02","TLE_LINE2":"2 49763  53.2191 347.6304 0002219  28.4555  96.1505 15.40504222  3635","REF_FRAME":"TEME","SITE":"AFETR","MEAN_ANOMALY":"96.1505","OBJECT_TYPE":"PAYLOAD","PERIAPSIS":"443.108","RCS_SIZE":"LARGE","MEAN_MOTION_DDOT":"0.0000000000000","ECCENTRICITY":"0.00022190","APOAPSIS":"446.136","MEAN_MOTION":"15.40504222","CENTER_NAME":"EARTH"},{"APOAPSIS":"446.043","CENTER_NAME":"EARTH","MEAN_MOTION":"15.40478518","MEAN_MOTION_DDOT":"0.0000000000000","RCS_SIZE":"LARGE","PERIAPSIS":"443.353","ECCENTRICITY":"0.00019720","MEAN_ANOMALY":"92.0542","OBJECT_TYPE":"PAYLOAD","TLE_LINE2":"2 49764  53.2186 347.6374 0001972  27.3025  92.0542 15.40478518 12041","REF_FRAME":"TEME","SITE":"AFETR","EPOCH":"2022-02-10T22:00:00.999936","LAUNCH_DATE":"2021-12-02","BSTAR":"0.00117640000000","CLASSIFICATION_TYPE":"U","MEAN_ELEMENT_THEORY":"SGP4","ELEMENT_SET_NO":"999","SEMIMAJOR_AXIS":"6822.833","OBJECT_ID":"2021-115AS","TIME_SYSTEM":"UTC","FILE":"3296984","INCLINATION":"53.2186","EPHEMERIS_TYPE":"0","OBJECT_NAME":"STARLINK-3206","DECAY_DATE":null,"ARG_OF_PERICENTER":"27.3025","GP_ID":"195688982","RA_OF_ASC_NODE":"347.6374","NORAD_CAT_ID":"49764","PERIOD":"93.477","TLE_LINE1":"1 49764U 21115AS  22041.91667824  .00048309  00000-0  11764-2 0  9997","MEAN_MOTION_DOT":"0.00048309","COUNTRY_CODE":"US","REV_AT_EPOCH":"1204"},{"COUNTRY_CODE":"US","REV_AT_EPOCH":"1204","NORAD_CAT_ID":"49765","PERIOD":"93.478","MEAN_MOTION_DOT":"0.00046528","TLE_LINE1":"1 49765U 21115AT  22041.91667824  .00046528  00000-0  11343-2 0  9992","RA_OF_ASC_NODE":"347.6344","ARG_OF_PERICENTER":"32.6174","GP_ID":"195689477","EPHEMERIS_TYPE":"0","DECAY_DATE":null,"OBJECT_NAME":"STARLINK-3227","TIME_SYSTEM":"UTC","FILE":"3296984","INCLINATION":"53.2191","MEAN_ELEMENT_THEORY":"SGP4","CLASSIFICATION_TYPE":"U","ELEMENT_SET_NO":"999","SEMIMAJOR_AXIS":"6822.883","OBJECT_ID":"2021-115AT","LAUNCH_DATE":"2021-12-02","BSTAR":"0.00113430000000","EPOCH":"2022-02-10T22:00:00.999936","MEAN_ANOMALY":"89.8858","OBJECT_TYPE":"PAYLOAD","TLE_LINE2":"2 49765  53.2191 347.6344 0002170  32.6174  89.8858 15.40461496 12041","SITE":"AFETR","REF_FRAME":"TEME","ECCENTRICITY":"0.00021700","MEAN_MOTION_DDOT":"0.0000000000000","PERIAPSIS":"443.268","RCS_SIZE":"LARGE","CENTER_NAME":"EARTH","MEAN_MOTION":"15.40461496","APOAPSIS":"446.229"}];
